start=new Date('2022-01-17T00:00:00.000Z').valueOf();
sats=[{"REF_FRAME":"TEME","LAUNCH_DATE":"2021-01-20","RA_OF_ASC_NODE":"9.6387","MEAN_ELEMENT_THEORY":"SGP4","TLE_LINE2":"2 47372  53.0550   9.6387 0001815  69.2763 290.8420 15.06411505 55030","APOAPSIS":"548.435","DECAY_DATE":null,"RCS_SIZE":"LARGE","NORAD_CAT_ID":"47372","REV_AT_EPOCH":"5503","MEAN_MOTION_DOT":"0.00002572","MEAN_MOTION_DDOT":"0.0000000000000","EPOCH":"2022-01-16T11:40:56.318016","GP_ID":"193985523","OBJECT_NAME":"STARLINK-2089","CENTER_NAME":"EARTH","BSTAR":"0.00019145000000","OBJECT_ID":"2021-005Z","ECCENTRICITY":"0.00018150","SEMIMAJOR_AXIS":"6925.313","PERIOD":"95.591","MEAN_MOTION":"15.06411505","CLASSIFICATION_TYPE":"U","TIME_SYSTEM":"UTC","PERIAPSIS":"545.921","ELEMENT_SET_NO":"999","ARG_OF_PERICENTER":"69.2763","TLE_LINE1":"1 47372U 21005Z   22016.48676294  .00002572  00000-0  19145-3 0  9997","INCLINATION":"53.0550","FILE":"3274671","EPHEMERIS_TYPE":"0","SITE":"AFETR","OBJECT_TYPE":"PAYLOAD","MEAN_ANOMALY":"290.8420","COUNTRY_CODE":"US"},{"ARG_OF_PERICENTER":"54.1786","ELEMENT_SET_NO":"999","TIME_SYSTEM":"UTC","PERIAPSIS":"546.158","FILE":"3274671","SITE":"AFETR","EPHEMERIS_TYPE":"0","MEAN_ANOMALY":"305.9341","OBJECT_TYPE":"PAYLOAD","COUNTRY_CODE":"US","INCLINATION":"53.0560","TLE_LINE1":"1 47373U 21005AA  22016.38589608  .00000596  00000-0  58892-4 0  9996","DECAY_DATE":null,"TLE_LINE2":"2 47373  53.0560  15.0937 0001493  54.1786 305.9341 15.06406921 54950","APOAPSIS":"548.226","RCS_SIZE":"LARGE","LAUNCH_DATE":"2021-01-20","REF_FRAME":"TEME","RA_OF_ASC_NODE":"15.0937","MEAN_ELEMENT_THEORY":"SGP4","CENTER_NAME":"EARTH","GP_ID":"193984773","OBJECT_NAME":"STARLINK-2092","CLASSIFICATION_TYPE":"U","OBJECT_ID":"2021-005AA","BSTAR":"0.00005889200000","ECCENTRICITY":"0.00014930","PERIOD":"95.592","MEAN_MOTION":"15.06406921","SEMIMAJOR_AXIS":"6925.327","REV_AT_EPOCH":"5495","NORAD_CAT_ID":"47373","EPOCH":"2022-01-16T09:15:41.421312","MEAN_MOTION_DOT":"0.00000596","MEAN_MOTION_DDOT":"0.0000000000000"},{"EPOCH":"2022-01-16T09:46:09.558048","MEAN_MOTION_DDOT":"0.0000000000000","MEAN_MOTION_DOT":"0.00002778","REV_AT_EPOCH":"5495","NORAD_CAT_ID":"47374","CLASSIFICATION_TYPE":"U","ECCENTRICITY":"0.00017730","BSTAR":"0.00020523000000","OBJECT_ID":"2021-005AB","SEMIMAJOR_AXIS":"6925.309","PERIOD":"95.591","MEAN_MOTION":"15.06412903","CENTER_NAME":"EARTH","GP_ID":"193985023","OBJECT_NAME":"STARLINK-2093","RA_OF_ASC_NODE":"15.0685","MEAN_ELEMENT_THEORY":"SGP4","LAUNCH_DATE":"2021-01-20","REF_FRAME":"TEME","RCS_SIZE":"LARGE","DECAY_DATE":null,"APOAPSIS":"548.402","TLE_LINE2":"2 47374  53.0491  15.0685 0001773  59.2083 300.9080 15.06412903 54953","INCLINATION":"53.0491","TLE_LINE1":"1 47374U 21005AB  22016.40705507  .00002778  00000-0  20523-3 0  9991","MEAN_ANOMALY":"300.9080","OBJECT_TYPE":"PAYLOAD","COUNTRY_CODE":"US","FILE":"3274671","EPHEMERIS_TYPE":"0","SITE":"AFETR","ELEMENT_SET_NO":"999","PERIAPSIS":"545.946","TIME_SYSTEM":"UTC","ARG_OF_PERICENTER":"59.2083"},{"TLE_LINE1":"1 47375U 21005AC  22016.41168536  .00003986  00000-0  28620-3 0  9996","INCLINATION":"53.0551","FILE":"3274671","SITE":"AFETR","EPHEMERIS_TYPE":"0","COUNTRY_CODE":"US","OBJECT_TYPE":"PAYLOAD","MEAN_ANOMALY":"295.0062","TIME_SYSTEM":"UTC","PERIAPSIS":"545.940","ELEMENT_SET_NO":"999","ARG_OF_PERICENTER":"65.1111","REV_AT_EPOCH":"5495","NORAD_CAT_ID":"47375","MEAN_MOTION_DDOT":"0.0000000000000","MEAN_MOTION_DOT":"0.00003986","EPOCH":"2022-01-16T09:52:49.615104","OBJECT_NAME":"STARLINK-2094","GP_ID":"193985275","CENTER_NAME":"EARTH","PERIOD":"95.591","MEAN_MOTION":"15.06414717","SEMIMAJOR_AXIS":"6925.303","OBJECT_ID":"2021-005AC","BSTAR":"0.00028620000000","ECCENTRICITY":"0.00017740","CLASSIFICATION_TYPE":"U","REF_FRAME":"TEME","LAUNCH_DATE":"2021-01-20","MEAN_ELEMENT_THEORY":"SGP4","RA_OF_ASC_NODE":"14.9981","APOAPSIS":"548.397","TLE_LINE2":"2 47375  53.0551  14.9981 0001774  65.1111 295.0062 15.06414717 54956","DECAY_DATE":null,"RCS_SIZE":"LARGE"},{"APOAPSIS":"548.311","TLE_LINE2":"2 47376  53.0562  14.9820 0001635  58.3382 301.7766 15.06411496 54958","DECAY_DATE":null,"RCS_SIZE":"LARGE","REF_FRAME":"TEME","LAUNCH_DATE":"2021-01-20","MEAN_ELEMENT_THEORY":"SGP4","RA_OF_ASC_NODE":"14.9820","OBJECT_NAME":"STARLINK-2096","GP_ID":"193986023","CENTER_NAME":"EARTH","PERIOD":"95.591","SEMIMAJOR_AXIS":"6925.313","MEAN_MOTION":"15.06411496","BSTAR":"0.00024100000000","OBJECT_ID":"2021-005AD","ECCENTRICITY":"0.00016350","CLASSIFICATION_TYPE":"U","REV_AT_EPOCH":"5495","NORAD_CAT_ID":"47376","MEAN_MOTION_DDOT":"0.0000000000000","MEAN_MOTION_DOT":"0.00003311","EPOCH":"2022-01-16T09:58:08.064768","ARG_OF_PERICENTER":"58.3382","PERIAPSIS":"546.046","TIME_SYSTEM":"UTC","ELEMENT_SET_NO":"999","FILE":"3274671","EPHEMERIS_TYPE":"0","SITE":"AFETR","COUNTRY_CODE":"US","OBJECT_TYPE":"PAYLOAD","MEAN_ANOMALY":"301.7766","TLE_LINE1":"1 47376U 21005AD  22016.41537112  .00003311  00000-0  24100-3 0  9998","INCLINATION":"53.0562"},{"RA_OF_ASC_NODE":"15.0250","MEAN_ELEMENT_THEORY":"SGP4","REF_FRAME":"TEME","LAUNCH_DATE":"2021-01-20","RCS_SIZE":"LARGE","APOAPSIS":"548.293","TLE_LINE2":"2 47377  53.0589  15.0250 0001624  73.2217 286.8950 15.06414632 54951","DECAY_DATE":null,"MEAN_MOTION_DDOT":"0.0000000000000","MEAN_MOTION_DOT":"0.00004308","EPOCH":"2022-01-16T09:36:54.113184","REV_AT_EPOCH":"5495","NORAD_CAT_ID":"47377","BSTAR":"0.00030781000000","ECCENTRICITY":"0.00016240","OBJECT_ID":"2021-005AE","MEAN_MOTION":"15.06414632","PERIOD":"95.591","SEMIMAJOR_AXIS":"6925.304","CLASSIFICATION_TYPE":"U","GP_ID":"193984274","OBJECT_NAME":"STARLINK-2097","CENTER_NAME":"EARTH","TIME_SYSTEM":"UTC","PERIAPSIS":"546.044","ELEMENT_SET_NO":"999","ARG_OF_PERICENTER":"73.2217","TLE_LINE1":"1 47377U 21005AE  22016.40062631  .00004308  00000-0  30781-3 0  9996","INCLINATION":"53.0589","OBJECT_TYPE":"PAYLOAD","MEAN_ANOMALY":"286.8950","COUNTRY_CODE":"US","FILE":"3274671","SITE":"AFETR","EPHEMERIS_TYPE":"0"},{"LAUNCH_DATE":"2021-01-20","REF_FRAME":"TEME","MEAN_ELEMENT_THEORY":"SGP4","RA_OF_ASC_NODE":"335.6708","DECAY_DATE":null,"TLE_LINE2":"2 47378  53.0578 335.6708 0001530  78.1097 282.0063 15.06419716 55496","APOAPSIS":"548.213","RCS_SIZE":"LARGE","REV_AT_EPOCH":"5549","NORAD_CAT_ID":"47378","EPOCH":"2022-01-16T06:15:12.100608","MEAN_MOTION_DDOT":"0.0000000000000","MEAN_MOTION_DOT":"0.00006953","CENTER_NAME":"EARTH","OBJECT_NAME":"STARLINK-2098","GP_ID":"193984524","CLASSIFICATION_TYPE":"U","PERIOD":"95.591","SEMIMAJOR_AXIS":"6925.288","MEAN_MOTION":"15.06419716","OBJECT_ID":"2021-005AF","BSTAR":"0.00048494000000","ECCENTRICITY":"0.00015300","ELEMENT_SET_NO":"999","TIME_SYSTEM":"UTC","PERIAPSIS":"546.094","ARG_OF_PERICENTER":"78.1097","INCLINATION":"53.0578","TLE_LINE1":"1 47378U 21005AF  22016.26055672  .00006953  00000-0  48494-3 0  9996","EPHEMERIS_TYPE":"0","FILE":"3274671","SITE":"AFETR","COUNTRY_CODE":"US","MEAN_ANOMALY":"282.0063","OBJECT_TYPE":"PAYLOAD"},{"OBJECT_TYPE":"PAYLOAD","MEAN_ANOMALY":"295.3369","COUNTRY_CODE":"US","FILE":"3274823","EPHEMERIS_TYPE":"0","SITE":"AFETR","INCLINATION":"53.0550","TLE_LINE1":"1 47379U 21005AG  22016.59965762  .00002623  00000-0  19487-3 0  9993","ARG_OF_PERICENTER":"64.7825","ELEMENT_SET_NO":"999","TIME_SYSTEM":"UTC","PERIAPSIS":"545.797","CLASSIFICATION_TYPE":"U","BSTAR":"0.00019487000000","ECCENTRICITY":"0.00019780","OBJECT_ID":"2021-005AG","PERIOD":"95.591","MEAN_MOTION":"15.06415397","SEMIMAJOR_AXIS":"6925.301","CENTER_NAME":"EARTH","GP_ID":"193991058","OBJECT_NAME":"STARLINK-2099","EPOCH":"2022-01-16T14:23:30.418368","MEAN_MOTION_DOT":"0.00002623","MEAN_MOTION_DDOT":"0.0000000000000","NORAD_CAT_ID":"47379","REV_AT_EPOCH":"5554","RCS_SIZE":"LARGE","DECAY_DATE":null,"TLE_LINE2":"2 47379  53.0550 334.1421 0001978  64.7825 295.3369 15.06415397 55542","APOAPSIS":"548.536","RA_OF_ASC_NODE":"334.1421","MEAN_ELEMENT_THEORY":"SGP4","LAUNCH_DATE":"2021-01-20","REF_FRAME":"TEME"},{"ARG_OF_PERICENTER":"66.7826","ELEMENT_SET_NO":"999","PERIAPSIS":"545.860","TIME_SYSTEM":"UTC","FILE":"3274671","SITE":"AFETR","EPHEMERIS_TYPE":"0","MEAN_ANOMALY":"293.3358","OBJECT_TYPE":"PAYLOAD","COUNTRY_CODE":"US","INCLINATION":"53.0553","TLE_LINE1":"1 47380U 21005AH  22016.42918782  .00006281  00000-0  43992-3 0  9999","DECAY_DATE":null,"TLE_LINE2":"2 47380  53.0553 344.9207 0001856  66.7826 293.3358 15.06422399 55384","APOAPSIS":"548.430","RCS_SIZE":"LARGE","LAUNCH_DATE":"2021-01-20","REF_FRAME":"TEME","RA_OF_ASC_NODE":"344.9207","MEAN_ELEMENT_THEORY":"SGP4","CENTER_NAME":"EARTH","GP_ID":"193985524","OBJECT_NAME":"STARLINK-2100","CLASSIFICATION_TYPE":"U","BSTAR":"0.00043992000000","OBJECT_ID":"2021-005AH","ECCENTRICITY":"0.00018560","MEAN_MOTION":"15.06422399","PERIOD":"95.591","SEMIMAJOR_AXIS":"6925.280","NORAD_CAT_ID":"47380","REV_AT_EPOCH":"5538","EPOCH":"2022-01-16T10:18:01.827648","MEAN_MOTION_DDOT":"0.0000000000000","MEAN_MOTION_DOT":"0.00006281"},{"DECAY_DATE":null,"TLE_LINE2":"2 47381  53.0552 350.4830 0001494  72.3436 287.7716 15.06429478 55296","APOAPSIS":"548.158","RCS_SIZE":"LARGE","LAUNCH_DATE":"2021-01-20","REF_FRAME":"TEME","RA_OF_ASC_NODE":"350.4830","MEAN_ELEMENT_THEORY":"SGP4","CENTER_NAME":"EARTH","GP_ID":"193984774","OBJECT_NAME":"STARLINK-2101","CLASSIFICATION_TYPE":"U","ECCENTRICITY":"0.00014940","BSTAR":"0.00102910000000","OBJECT_ID":"2021-005AJ","MEAN_MOTION":"15.06429478","PERIOD":"95.590","SEMIMAJOR_AXIS":"6925.258","NORAD_CAT_ID":"47381","REV_AT_EPOCH":"5529","EPOCH":"2022-01-16T07:18:14.671008","MEAN_MOTION_DDOT":"0.0000000000000","MEAN_MOTION_DOT":"0.00015092","ARG_OF_PERICENTER":"72.3436","ELEMENT_SET_NO":"999","PERIAPSIS":"546.089","TIME_SYSTEM":"UTC","FILE":"3274671","SITE":"AFETR","EPHEMERIS_TYPE":"0","OBJECT_TYPE":"PAYLOAD","MEAN_ANOMALY":"287.7716","COUNTRY_CODE":"US","INCLINATION":"53.0552","TLE_LINE1":"1 47381U 21005AJ  22016.30433647  .00015092  00000-0  10291-2 0  9994"}];
